CALSPHERE 1             
1 00900U 64063C   26077.45819527  .00000608  00000+0  61054-3 0  9993
2 00900  90.2169  69.6501 0024381 202.5632 255.8547 13.76509433 58946
CALSPHERE 2             
1 00902U 64063E   26077.45272018  .00000059  00000+0  75270-4 0  9999
2 00902  90.2288  73.6372 0020166 127.0923  41.3928 13.52892512843997
LCS 1                   
1 01361U 65034C   26077.59465429  .00000001  00000+0 -93057-3 0  9993
2 01361  32.1455  32.1173 0013254 161.7326 198.3649  9.89309876200912
TEMPSAT 1               
1 01512U 65065E   26077.64144936  .00000022  00000+0  25278-4 0  9991
2 01512  89.9956 212.5829 0070943 141.8563 230.1527 13.33589737947983
CALSPHERE 4A            
1 01520U 65065H   26077.56842116  .00000112  00000+0  19798-3 0  9995
2 01520  89.9015 123.3871 0069392   1.2145 168.1411 13.36260817950608
OPS 5712 (P/L 160)      
1 02826U 67053A   26077.57443720  .00006663  00000+0  96878-3 0  9994
2 02826  69.9152 260.1625 0003727 217.5159 142.5728 14.76335698 52854
LES-5                   
1 02866U 67066E   26077.47003941 -.00000106  00000+0  00000+0 0  9993
2 02866   2.4134  99.1436 0055792 209.5105 292.6256  1.09426124130049
SURCAL 159              
1 02872U 67053F   26077.39386256  .00000071  00000+0  85169-4 0  9994
2 02872  69.9745 196.3329 0009250 243.3272 116.6889 13.99578642997506
OPS 5712 (P/L 153)      
1 02874U 67053H   26077.39396799  .00000043  00000+0  69329-4 0  9998
2 02874  69.9744 309.9150 0009483 301.7340  58.2841 13.96813641994104
OPS 3811 (DSP 2)        
1 05204U 71039A   26077.56589316 -.00000113  00000+0  00000+0 0  9990
2 05204   0.2366   6.5191 0023589 286.6710 106.6636  0.98161401205330
RIGIDSPHERE 2 (LCS 4)   
1 05398U 71067E   26077.51020765  .00000619  00000+0  19542-3 0  9993
2 05398  87.6280   3.9672 0059991 171.4999 188.7232 14.37755801860857
OSCAR 7 (AO-7)          
1 07530U 74089B   26077.51304053 -.00000043  00000+0  20868-4 0  9991
2 07530 101.9964  89.7980 0011924 304.9838 208.3517 12.53696599349153
STARLETTE               
1 07646U 75010A   26077.58108660 -.00000131  00000+0  10679-4 0  9994
2 07646  49.8222 102.2319 0205602 123.7150 238.3526 13.82349308582009
LAGEOS 1                
1 08820U 76039A   26077.41050722  .00000010  00000+0  00000+0 0  9995
2 08820 109.8149 148.2685 0044663 321.7294  42.9425  6.38664837907347
OPS 8701 (DSP 10)       
1 13086U 82019A   26077.34630987 -.00000195  00000+0  00000+0 0  9994
2 13086   9.4753 309.8650 0004827 323.4619  18.5493  0.98190903 24766
PHASE 3B (AO-10)        
1 14129U 83058B   26077.56028266  .00000122  00000+0  00000+0 0  9991
2 14129  25.9170 234.7574 6043564  90.5700 334.5381  2.05871844293622
UOSAT 2 (UO-11)         
1 14781U 84021B   26077.40078864  .00001505  00000+0  15965-3 0  9994
2 14781  97.7962  44.0558 0008929 118.5705 241.6413 14.90537431243607
AJISAI (EGS)            
1 16908U 86061A   26077.55641270 -.00000103  00000+0 -39081-4 0  9997
2 16908  50.0090  66.0812 0011298 309.8797 151.5388 12.44515700469107
TDRS 3                  
1 19548U 88091B   26077.11572478 -.00000292  00000+0  00000+0 0  9992
2 19548  12.6713 341.5974 0042294 354.0724 192.7992  1.00273476124475
COSMOS 1989 (ETALON 1)  
1 19751U 89001C   26077.44935167  .00000052  00000+0  00000+0 0  9997
2 19751  64.8934  75.2971 0023404 217.6226 318.8469  2.13156006289438
COSMOS 2024 (ETALON 2)  
1 20026U 89039C   26077.20460767 -.00000004  00000+0  00000+0 0  9996
2 20026  64.9890 313.6719 0020473 213.3102 277.1785  2.13204549286560
FLTSATCOM 8 (USA 46)    
1 20253U 89077A   26077.61614245 -.00000360  00000+0  00000+0 0  9992
2 20253  12.4464 351.7079 0008323 351.9442 179.9023  1.00280183259652
LUSAT (LO-19)           
1 20442U 90005G   26077.48182653  .00000141  00000+0  67169-4 0  9993
2 20442  98.8929  96.7576 0012635 110.6539 249.6001 14.34091775889391
HST                     
1 20580U 90037B   26077.42483345  .00006197  00000+0  20206-3 0  9994
2 20580  28.4725 340.4056 0001610 218.0780 141.9702 15.29619879774651
SKYNET 4C               
1 20776U 90079A   26076.85549920  .00000133  00000+0  00000+0 0  9995
2 20776  13.3694 350.4321 0003058  12.2174 154.1809  1.00277239129978
USA 65 (DSP 15)         
1 20929U 90095A   26077.38704337 -.00000130  00000+0  00000+0 0  9995
2 20929  14.0600 344.6708 0003686  67.4306  99.7844  0.98398284 24576
TDRS 5                  
1 21639U 91054B   26076.50878128  .00000091  00000+0  00000+0 0  9998
2 21639  14.0828 354.4523 0009844 276.1804 279.9112  1.00271548126799
USA 75 (DSP 16)         
1 21805U 91080B   26075.92336485 -.00000134  00000+0  00000+0 0  9991
2 21805  14.0530 346.1617 0003346  71.7253  96.5770  0.99189269 24799
LAGEOS 2                
1 22195U 92070B   26077.02662657 -.00000009  00000+0  00000+0 0  9991
2 22195  52.6753 324.2776 0137719 147.4591 234.5851  6.47293419789523
TDRS 6                  
1 22314U 93003B   26077.48560924 -.00000288  00000+0  00000+0 0  9994
2 22314  14.1814 357.7324 0005008 193.3733 113.9501  1.00273639121494
SCD 1                   
1 22490U 93009B   26077.64117278  .00000456  00000+0  73542-4 0  9995
2 22490  24.9702  46.6241 0041670 259.5783 262.0122 14.46073398747999
UFO 2 (USA 95)          
1 22787U 93056A   26076.95253079  .00000132  00000+0  00000+0 0  9994
2 22787  11.8634   4.0505 0009271 339.8689 203.1672  1.00270025117636
STELLA                  
1 22824U 93061B   26077.64321387 -.00000033  00000+0  48171-5 0  9995
2 22824  98.7822 141.5322 0007152 133.9763 350.8955 14.27467797691859
EYESAT A (AO-27)        
1 22825U 93061C   26077.44766836  .00000107  00000+0  57941-4 0  9991
2 22825  98.6963 144.8636 0008514  14.6783 345.4645 14.30915943694022
ITAMSAT (IO-26)         
1 22826U 93061D   26077.59384253  .00000119  00000+0  61858-4 0  9992
2 22826  98.6911 144.9182 0008685 357.3830   2.7306 14.31340362694353
USA 99 (MILSTAR-1 1)    
1 22988U 94009A   26077.48925246 -.00000189  00000+0  00000+0 0  9990
2 22988  17.4829  28.6834 0003634 313.3208 280.1435  1.00270132 32047
RADIO ROSTO (RS15)      
1 23439U 94085A   26077.56443462 -.00000046  00000+0 -91356-4 0  9992
2 23439  64.8134  89.7783 0153004  20.3697 340.3243 11.27583830285687
UFO 4 (USA 108)         
1 23467U 95003A   26077.59605327 -.00000014  00000+0  00000+0 0  9992
2 23467   9.6832  13.5261 0003754 346.9310 202.6398  1.00275420114046
TDRS 7                  
1 23613U 95035B   26077.61023839 -.00000233  00000+0  00000+0 0  9998
2 23613  13.4148 348.8127 0008884  50.2816  85.8633  1.00272772112343
USA 115 (MILSTAR-1 2)   
1 23712U 95060A   26077.42961381 -.00000013  00000+0  00000+0 0  9994
2 23712  14.0406   4.4177 0003471 344.4919 221.7172  1.00272433 31978
POLAR                   
1 23802U 96013A   26076.38049156  .00000204  00000+0  00000+0 0  9995
2 23802  79.7604 228.1036 6377488 212.2013  84.5029  1.29845788143666
INMARSAT 3-F1           
1 23839U 96020A   26077.18586391 -.00000080  00000+0  00000+0 0  9992
2 23839  10.4137  47.4579 0005502 284.9314 266.9998  1.00000482109343
USA 119                 
1 23893U 96029A   26077.40697717  .00001820  00000+0  31832-3 0  9994
2 23893  63.3195  69.6069 0846773  47.7766 319.2026 13.45921955 93056
JAS-2 (FO-29)           
1 24278U 96046B   26077.59246814  .00000018  00000+0  55873-4 0  9999
2 24278  98.5367 298.8072 0349447 331.6661  26.5856 13.53269512460915
INMARSAT 3-F2           
1 24307U 96053A   26077.53807303  .00000043  00000+0  00000+0 0  9995
2 24307   9.6531  54.8440 0006292 307.2590 247.4991  0.99979646108017
INMARSAT 3-F3           
1 24674U 96070A   26077.30392970 -.00000323  00000+0  00000+0 0  9997
2 24674  10.1236  50.5082 0006358 283.7293  88.7144  0.99997518107001
NAVSTAR 43 (USA 132)    
1 24876U 97035A   26076.46297252  .00000066  00000+0  00000+0 0  9999
2 24876  55.9431 102.1600 0098315  56.1831 304.8272  2.00563949210115
FORTE                   
1 24920U 97047A   26077.66003922  .00000178  00000+0  95122-4 0  9992
2 24920  69.9526 218.4876 0020082  35.8992 324.3475 14.27903940485767
AMC-3                   
1 24936U 97050A   26077.40507012 -.00000255  00000+0  00000+0 0  9997
2 24936   7.9226  65.1073 0003221 293.1097 251.5765  1.00271288 51526
USA 134                 
1 25019U 97065A   26077.40132759 -.00000055  00000+0  00000+0 0  9996
2 25019  12.6767  22.3903 0006330 312.5214 233.2898  1.00269175 32042
ORBCOMM FM06            
1 25118U 97084G   26077.60818222  .00001285  00000+0  38701-3 0  9993
2 25118  45.0127 128.6810 0002490 235.5685 288.9727 14.47302412481265
INMARSAT 3-F5           
1 25153U 98006B   26077.44051500 -.00000283  00000+0  00000+0 0  9992
2 25153   9.4902  54.1414 0005102 306.2673 280.2103  1.00270490102985
ORBCOMM FM04            
1 25159U 98007C   26077.46394388  .00000827  00000+0  32995-3 0  9990
2 25159 107.9611 342.7539 0038560 126.6124 233.8573 14.35547439463577
CELESTIS-02 & TAURUS R/B
1 25160U 98007D   26077.45289651  .00000001  00000+0  57626-4 0  9990
2 25160 108.0056 149.1487 0063608 287.4364  84.2944 14.22455861457619
TECHSAT 1B (GO-32)      
1 25397U 98043D   26077.45033890  .00000072  00000+0  51417-4 0  9994
2 25397  99.0037  67.9380 0002285 105.3336 254.8095 14.24408628438419
WESTPAC                 
1 25398U 98043E   26077.42584410 -.00000020  00000+0  11590-4 0  9993
2 25398  99.0081  61.3535 0002349 102.2132 257.9308 14.23047737438038
ORBCOMM FM19            
1 25415U 98046C   26077.63853917  .00000929  00000+0  34181-3 0  9997
2 25415  44.9947 313.9088 0002532 222.2672 161.1461 14.39295353443738
ORBCOMM FM20            
1 25416U 98046D   26077.00224399  .00000640  00000+0  25657-3 0  9993
2 25416  44.9951 323.8655 0000688 312.2417  47.8373 14.37912800443666
ORBCOMM FM27            
1 25481U 98053G   26077.17419229  .00001067  00000+0  38854-3 0  9996
2 25481  45.0058  47.5722 0001793 286.5865  73.4786 14.38953726437121
